{"type":"FeatureCollection","name":"astana_districts","attribution":"© OpenStreetMap contributors, ODbL 1.0; boundaries via polygons.openstreetmap.fr","features":[{"type":"Feature","properties":{"id":"esil","name_ru":"Есиль","name_kk":"Есіл","osm_relation":3479876,"pop_share":0.27},"geometry":{"type":"MultiPolygon","coordinates":[[[[71.24545,51.06831],[71.24875,51.06853],[71.25019,51.0682],[71.25175,51.06748],[71.25322,51.06589],[71.25399,51.06558],[71.25552,51.06367],[71.2558,51.06183],[71.25565,51.06144],[71.25517,51.06012],[71.25453,51.0584],[71.25432,51.05749],[71.25399,51.05602],[71.25458,51.05463],[71.25485,51.05396],[71.25487,51.05392],[71.25482,51.05219],[71.2548,51.05154],[71.25479,51.05108],[71.25475,51.04978],[71.25499,51.04895],[71.2562,51.04826],[71.25776,51.04736],[71.25832,51.04694],[71.25932,51.0462],[71.26018,51.04558],[71.26102,51.04455],[71.26209,51.04322],[71.26269,51.04248],[71.2633,51.04171],[71.26596,51.04061],[71.26674,51.03987],[71.26788,51.03879],[71.26833,51.0367],[71.26858,51.03608],[71.26929,51.0343],[71.27015,51.03384],[71.27158,51.03306],[71.27244,51.03259],[71.27355,51.03178],[71.27493,51.03077],[71.27558,51.03029],[71.27687,51.0288],[71.27757,51.028],[71.27825,51.02739],[71.27936,51.0264],[71.28067,51.02521],[71.28203,51.02471],[71.28409,51.02395],[71.28596,51.02229],[71.28774,51.02194],[71.28896,51.0217],[71.29065,51.02188],[71.29324,51.02209],[71.29476,51.02222],[71.29588,51.02231],[71.29824,51.0225],[71.29972,51.02262],[71.30176,51.02279],[71.30288,51.02288],[71.30376,51.02279],[71.30446,51.02272],[71.30553,51.02261],[71.30676,51.02248],[71.30773,51.02237],[71.30901,51.02269],[71.31015,51.02297],[71.31228,51.0235],[71.31397,51.02362],[71.3184,51.02393],[71.32121,51.02346],[71.32337,51.02308],[71.32838,51.02221],[71.33169,51.02164],[71.33473,51.01974],[71.33547,51.01927],[71.33818,51.0189],[71.33997,51.01865],[71.34186,51.0184],[71.34526,51.01793],[71.34743,51.01763],[71.34902,51.01741],[71.35416,51.01671],[71.35738,51.01627],[71.36052,51.01583],[71.36466,51.01526],[71.36619,51.01505],[71.36806,51.0148],[71.38002,51.01314],[71.38105,51.01316],[71.38168,51.01317],[71.38365,51.01286],[71.3859,51.01251],[71.391,51.01173],[71.39698,51.01081],[71.40018,51.01032],[71.40076,51.01008],[71.40141,51.00978],[71.40278,51.00923],[71.40368,51.00909],[71.40473,51.00892],[71.4069,51.00857],[71.40759,51.00846],[71.40992,51.00809],[71.41107,51.00791],[71.41303,51.00759],[71.41504,51.00727],[71.41611,51.00712],[71.41901,51.0067],[71.42089,51.00642],[71.42253,51.00618],[71.42529,51.00578],[71.42911,51.00523],[71.43048,51.00503],[71.43101,51.00495],[71.43244,51.00468],[71.43528,51.00416],[71.43676,51.00311],[71.43795,51.00368],[71.43908,51.00348],[71.44017,51.00329],[71.4426,51.00286],[71.44554,51.00234],[71.44861,51.0018],[71.45046,51.00146],[71.45207,51.00118],[71.45401,51.00084],[71.45419,51.00086],[71.45389,50.99831],[71.45367,50.99678],[71.45296,50.99209],[71.45164,50.98331],[71.45633,50.98256],[71.45265,50.96879],[71.45153,50.9649],[71.45091,50.96044],[71.46319,50.95846],[71.46218,50.95277],[71.46114,50.95053],[71.46057,50.9472],[71.46669,50.94769],[71.46922,50.94582],[71.47161,50.93765],[71.4827,50.93962],[71.48656,50.93082],[71.51118,50.93073],[71.52078,50.93069],[71.53103,50.93074],[71.54693,50.93089],[71.54743,50.93404],[71.54786,50.93805],[71.5487,50.94651],[71.5543,50.9683],[71.55263,50.9756],[71.54864,50.9788],[71.54572,50.98111],[71.54283,50.9834],[71.5404,50.98535],[71.53808,50.98719],[71.53793,50.98736],[71.53779,50.98754],[71.53765,50.98772],[71.53753,50.9879],[71.53741,50.98809],[71.53731,50.98828],[71.53722,50.98846],[71.53714,50.98866],[71.53707,50.98885],[71.53701,50.98905],[71.53696,50.98924],[71.53692,50.98944],[71.5369,50.98963],[71.53688,50.98984],[71.53687,50.99003],[71.5369,50.99305],[71.53697,50.99827],[71.53702,51.00485],[71.53703,51.00686],[71.53708,51.00702],[71.53713,51.00717],[71.53719,51.00732],[71.53727,51.00747],[71.53735,51.00762],[71.53744,51.00776],[71.53754,51.0079],[71.53766,51.00804],[71.53779,51.00818],[71.53791,51.00831],[71.53805,51.00844],[71.5382,51.00856],[71.53836,51.00868],[71.53852,51.0088],[71.53869,51.00891],[71.53887,51.00901],[71.53906,51.00911],[71.53925,51.00921],[71.53946,51.0093],[71.54412,51.01177],[71.5462,51.01241],[71.55585,51.01538],[71.5531,51.02249],[71.55081,51.0282],[71.55024,51.0296],[71.53975,51.04817],[71.54554,51.04891],[71.54741,51.05111],[71.55589,51.04887],[71.55995,51.05305],[71.56425,51.05745],[71.56736,51.06009],[71.57078,51.06303],[71.57947,51.07042],[71.58805,51.0747],[71.60348,51.08586],[71.60827,51.09139],[71.60788,51.09132],[71.60654,51.09168],[71.6054,51.09213],[71.604,51.09242],[71.60178,51.0932],[71.59921,51.0941],[71.58779,51.09719],[71.55088,51.10098],[71.53872,51.10223],[71.53283,51.10284],[71.52762,51.1034],[71.52604,51.10345],[71.52519,51.10344],[71.52436,51.10337],[71.52368,51.10327],[71.52254,51.10295],[71.519,51.10176],[71.51741,51.10128],[71.51571,51.10093],[71.51427,51.10081],[71.5129,51.10085],[71.51084,51.10119],[71.50741,51.10213],[71.50296,51.10333],[71.50145,51.10357],[71.50079,51.10359],[71.50005,51.10355],[71.49913,51.10341],[71.49814,51.10315],[71.49806,51.10312],[71.495,51.10182],[71.49233,51.10065],[71.49126,51.10019],[71.48972,51.09963],[71.48706,51.10005],[71.48321,51.10061],[71.48021,51.10102],[71.47915,51.10139],[71.47699,51.10224],[71.47628,51.10251],[71.4758,51.10282],[71.47533,51.10337],[71.47458,51.10421],[71.47402,51.10467],[71.47277,51.10518],[71.47166,51.10545],[71.46007,51.10561],[71.45689,51.10607],[71.45397,51.10709],[71.45179,51.1082],[71.45112,51.10889],[71.45076,51.10968],[71.45046,51.1124],[71.45011,51.1152],[71.44594,51.11987],[71.44585,51.12],[71.44581,51.12012],[71.44583,51.12026],[71.4463,51.12159],[71.4464,51.12173],[71.44655,51.12184],[71.44679,51.12191],[71.44787,51.12221],[71.44841,51.12239],[71.45053,51.12331],[71.45116,51.12363],[71.4516,51.12392],[71.45204,51.12434],[71.45232,51.12476],[71.45255,51.12534],[71.4526,51.12578],[71.45256,51.12622],[71.45237,51.12666],[71.45204,51.12705],[71.45146,51.12749],[71.45095,51.1278],[71.44905,51.12882],[71.44877,51.12903],[71.44851,51.12929],[71.44748,51.13057],[71.44739,51.13074],[71.44736,51.13089],[71.44739,51.13116],[71.4474,51.13131],[71.44743,51.13158],[71.44742,51.13178],[71.4473,51.13207],[71.44718,51.13228],[71.44683,51.13279],[71.44606,51.13396],[71.44179,51.14049],[71.4417,51.14222],[71.4414,51.14475],[71.44101,51.1458],[71.43981,51.14698],[71.43847,51.14754],[71.43801,51.14774],[71.43784,51.14836],[71.43586,51.14959],[71.43316,51.15005],[71.43106,51.15027],[71.42934,51.15102],[71.42849,51.1517],[71.42826,51.15193],[71.42813,51.15199],[71.4275,51.1525],[71.42745,51.15261],[71.42634,51.15535],[71.42552,51.15689],[71.42471,51.15845],[71.42359,51.15942],[71.42178,51.16024],[71.41933,51.16042],[71.41546,51.15886],[71.40936,51.15721],[71.40668,51.15735],[71.40224,51.1583],[71.39903,51.15968],[71.3982,51.16022],[71.39798,51.16036],[71.39766,51.16067],[71.39745,51.16089],[71.39714,51.16131],[71.39595,51.16248],[71.39526,51.16281],[71.39446,51.16291],[71.39348,51.16302],[71.39313,51.16305],[71.39209,51.16316],[71.39148,51.1632],[71.38879,51.16336],[71.38824,51.16341],[71.38764,51.16347],[71.38691,51.16352],[71.38626,51.16356],[71.38525,51.16361],[71.38415,51.16367],[71.3817,51.16389],[71.38101,51.16394],[71.37682,51.16434],[71.37652,51.16436],[71.37553,51.16445],[71.37382,51.16458],[71.36503,51.16458],[71.36454,51.16462],[71.36443,51.16463],[71.3639,51.16468],[71.36327,51.16473],[71.36267,51.16478],[71.36207,51.16483],[71.36121,51.16489],[71.36018,51.16479],[71.35921,51.16475],[71.35771,51.16469],[71.3571,51.16472],[71.35634,51.16451],[71.35608,51.16471],[71.35601,51.16477],[71.35554,51.16517],[71.35466,51.16586],[71.35323,51.16613],[71.35054,51.16735],[71.34991,51.16767],[71.34954,51.16795],[71.34918,51.16837],[71.34909,51.16867],[71.34884,51.16903],[71.34836,51.16957],[71.34808,51.16993],[71.34804,51.17029],[71.34795,51.17081],[71.34759,51.17112],[71.34663,51.17151],[71.346,51.17196],[71.34543,51.17233],[71.3444,51.17277],[71.34309,51.17315],[71.34272,51.17327],[71.34174,51.17376],[71.34109,51.17401],[71.34031,51.17421],[71.33937,51.1743],[71.33841,51.17434],[71.33748,51.1744],[71.33662,51.17419],[71.33641,51.1743],[71.33611,51.17432],[71.33586,51.17436],[71.33542,51.17428],[71.33507,51.17428],[71.33446,51.17426],[71.33425,51.17424],[71.33397,51.17413],[71.33347,51.1738],[71.33305,51.1735],[71.33274,51.17316],[71.33237,51.17301],[71.33195,51.17292],[71.33109,51.17268],[71.33097,51.17307],[71.33094,51.17354],[71.33053,51.17387],[71.32967,51.17422],[71.32901,51.17425],[71.3289,51.17426],[71.32839,51.17422],[71.32824,51.17428],[71.32778,51.17462],[71.32771,51.17467],[71.3272,51.17514],[71.32698,51.17535],[71.32675,51.17568],[71.32705,51.17601],[71.32762,51.17646],[71.32762,51.17675],[71.32745,51.17727],[71.32711,51.17753],[71.32657,51.17782],[71.32563,51.1778],[71.32498,51.17777],[71.32446,51.17772],[71.32395,51.17757],[71.3237,51.17733],[71.32367,51.17716],[71.3236,51.17697],[71.32353,51.17686],[71.32339,51.17678],[71.32323,51.17671],[71.32306,51.17669],[71.32289,51.17671],[71.32254,51.17681],[71.32201,51.1769],[71.32184,51.17698],[71.32168,51.17718],[71.32156,51.17739],[71.32148,51.17764],[71.32141,51.17776],[71.32117,51.17785],[71.32092,51.17789],[71.32075,51.1779],[71.32063,51.1779],[71.32054,51.17783],[71.32047,51.17771],[71.32043,51.17759],[71.32036,51.17746],[71.32025,51.17738],[71.32013,51.17732],[71.31996,51.17728],[71.31981,51.17729],[71.31963,51.17735],[71.31953,51.17746],[71.31947,51.17754],[71.3194,51.17764],[71.31928,51.17772],[71.31905,51.17788],[71.31874,51.17806],[71.31839,51.17821],[71.31822,51.17828],[71.31805,51.17825],[71.31785,51.17813],[71.31783,51.17806],[71.31766,51.17796],[71.31758,51.17795],[71.31742,51.17793],[71.31735,51.17798],[71.31734,51.17809],[71.31738,51.17822],[71.31735,51.17838],[71.31725,51.17846],[71.31706,51.17858],[71.31667,51.17869],[71.31615,51.17878],[71.31582,51.17883],[71.31551,51.17891],[71.31528,51.17906],[71.31526,51.17923],[71.31525,51.17935],[71.31515,51.17957],[71.31493,51.17976],[71.31474,51.17986],[71.31439,51.17987],[71.31412,51.17981],[71.31395,51.17975],[71.31372,51.17968],[71.31347,51.17963],[71.31325,51.17965],[71.31295,51.17965],[71.31279,51.17961],[71.31267,51.17957],[71.31255,51.17957],[71.31238,51.1795],[71.31208,51.17944],[71.31184,51.17942],[71.31158,51.17941],[71.31142,51.17943],[71.31131,51.17952],[71.31133,51.17964],[71.31153,51.17978],[71.31166,51.17986],[71.31171,51.17992],[71.31172,51.17995],[71.31169,51.18],[71.31165,51.18002],[71.31141,51.18001],[71.31118,51.17997],[71.3109,51.17997],[71.31079,51.18],[71.31046,51.18008],[71.31033,51.1801],[71.31027,51.18008],[71.31019,51.18003],[71.31017,51.17998],[71.31015,51.17992],[71.31009,51.17988],[71.30999,51.17987],[71.30986,51.17993],[71.30984,51.17997],[71.30984,51.18001],[71.30979,51.18005],[71.30972,51.18009],[71.30959,51.18014],[71.30951,51.18018],[71.30941,51.18027],[71.30939,51.18039],[71.30938,51.18047],[71.30937,51.18057],[71.30934,51.18062],[71.30932,51.18073],[71.3093,51.18084],[71.30926,51.18096],[71.30929,51.18106],[71.30934,51.18116],[71.3094,51.18122],[71.30948,51.1813],[71.30948,51.18138],[71.30949,51.18146],[71.30945,51.18153],[71.30937,51.18156],[71.30927,51.18161],[71.30911,51.18167],[71.30888,51.18169],[71.30876,51.18169],[71.30867,51.18166],[71.3085,51.1816],[71.30833,51.18161],[71.30821,51.18165],[71.30811,51.1817],[71.30806,51.18176],[71.308,51.18186],[71.30797,51.18198],[71.30797,51.18204],[71.30794,51.18214],[71.30787,51.18222],[71.30779,51.18226],[71.30759,51.18232],[71.30721,51.18235],[71.30703,51.18234],[71.30674,51.18228],[71.30629,51.18211],[71.30562,51.18201],[71.30521,51.182],[71.30443,51.18213],[71.30295,51.18252],[71.30273,51.18259],[71.30266,51.1827],[71.3025,51.18267],[71.30234,51.18254],[71.30216,51.18255],[71.30198,51.18262],[71.30089,51.18313],[71.30056,51.18324],[71.30022,51.18317],[71.30002,51.1832],[71.29985,51.18328],[71.29948,51.18351],[71.29866,51.18347],[71.29855,51.18369],[71.29865,51.18382],[71.29881,51.18387],[71.29916,51.18386],[71.29931,51.18392],[71.29948,51.18409],[71.29946,51.18421],[71.29895,51.18436],[71.29842,51.18431],[71.29808,51.18437],[71.29798,51.18448],[71.29794,51.18463],[71.29792,51.18472],[71.29789,51.18478],[71.29782,51.1849],[71.29756,51.18501],[71.29724,51.18512],[71.29702,51.18525],[71.29701,51.18526],[71.29686,51.18543],[71.29684,51.18551],[71.29682,51.18561],[71.2967,51.18597],[71.29643,51.18623],[71.29647,51.18631],[71.29663,51.18636],[71.29697,51.18629],[71.29732,51.18636],[71.29748,51.18641],[71.29761,51.1865],[71.29762,51.18659],[71.29759,51.18667],[71.29736,51.18675],[71.29699,51.18687],[71.2966,51.18711],[71.29648,51.18737],[71.29635,51.18756],[71.29624,51.18772],[71.29583,51.18775],[71.29561,51.18783],[71.29519,51.18776],[71.29497,51.18782],[71.29465,51.18801],[71.29435,51.18806],[71.2941,51.18808],[71.29384,51.18825],[71.29367,51.18833],[71.29347,51.18842],[71.29265,51.1889],[71.29205,51.18925],[71.29177,51.18931],[71.28999,51.18924],[71.28623,51.18907],[71.28463,51.18888],[71.27983,51.18832],[71.27688,51.18764],[71.27545,51.1879],[71.27408,51.18811],[71.27328,51.18817],[71.27322,51.18818],[71.27317,51.18819],[71.27213,51.18805],[71.27215,51.18758],[71.27198,51.18707],[71.27074,51.1867],[71.26987,51.18614],[71.27027,51.18594],[71.27017,51.18523],[71.27015,51.18507],[71.27042,51.18462],[71.27091,51.18449],[71.27115,51.18419],[71.27108,51.18408],[71.27105,51.18419],[71.27073,51.18379],[71.27086,51.18336],[71.27111,51.18335],[71.27157,51.18378],[71.27195,51.18394],[71.27273,51.18372],[71.27282,51.18343],[71.27237,51.18329],[71.27178,51.18279],[71.27217,51.18242],[71.27331,51.18137],[71.27425,51.18145],[71.27513,51.18215],[71.27572,51.1821],[71.27579,51.18154],[71.27608,51.18156],[71.27628,51.18147],[71.27616,51.18126],[71.2763,51.18112],[71.27631,51.18086],[71.27598,51.18033],[71.27599,51.18032],[71.27634,51.18012],[71.27672,51.18028],[71.27731,51.18032],[71.27759,51.18081],[71.27836,51.18042],[71.27878,51.18037],[71.27909,51.18048],[71.27951,51.18083],[71.27954,51.18086],[71.27983,51.18114],[71.28058,51.18095],[71.2809,51.18067],[71.28109,51.17984],[71.2815,51.1796],[71.28179,51.17963],[71.28192,51.17939],[71.27802,51.1782],[71.26539,51.17432],[71.25963,51.17508],[71.25298,51.17596],[71.25366,51.16888],[71.25419,51.16327],[71.25423,51.16288],[71.25443,51.15823],[71.24277,51.15764],[71.24259,51.1524],[71.23858,51.15232],[71.2385,51.1497],[71.23616,51.14965],[71.23699,51.13838],[71.23701,51.13742],[71.23674,51.13456],[71.23672,51.13287],[71.23748,51.13252],[71.23708,51.132],[71.23547,51.13006],[71.23413,51.12852],[71.23251,51.12656],[71.23095,51.12465],[71.22971,51.12292],[71.22903,51.12149],[71.22845,51.11922],[71.22852,51.11688],[71.22894,51.11511],[71.22185,51.11245],[71.21797,51.11079],[71.22016,51.10785],[71.22502,51.10133],[71.22588,51.10018],[71.22744,51.09767],[71.23017,51.09329],[71.23615,51.08352],[71.23865,51.07947],[71.2419,51.07411],[71.24201,51.07394],[71.24349,51.07152],[71.24545,51.06831]]],[[[71.37325,50.88633],[71.44251,50.87708],[71.43624,50.85761],[71.3667,50.8669],[71.37325,50.88633]]]]}},{"type":"Feature","properties":{"id":"almaty","name_ru":"Алматы","name_kk":"Алматы","osm_relation":3482819,"pop_share":0.24},"geometry":{"type":"MultiPolygon","coordinates":[[[[71.43847,51.14754],[71.44076,51.14846],[71.44314,51.14942],[71.44427,51.15004],[71.44569,51.15084],[71.44763,51.15194],[71.4504,51.15277],[71.45162,51.15305],[71.45239,51.15311],[71.45314,51.15332],[71.45362,51.15366],[71.45365,51.15393],[71.45468,51.15424],[71.45499,51.1546],[71.45958,51.15551],[71.4654,51.15816],[71.46711,51.15902],[71.46892,51.15995],[71.46965,51.16037],[71.46986,51.16063],[71.46988,51.16064],[71.46991,51.16068],[71.47,51.16079],[71.47019,51.16093],[71.47036,51.16104],[71.47192,51.1616],[71.47247,51.16208],[71.47272,51.16244],[71.47287,51.16271],[71.47312,51.16307],[71.47402,51.16366],[71.47452,51.16379],[71.47503,51.16386],[71.47587,51.1639],[71.4767,51.16398],[71.47745,51.1641],[71.47764,51.16414],[71.47775,51.16421],[71.47784,51.16431],[71.47803,51.16462],[71.47819,51.1648],[71.47898,51.1658],[71.47965,51.1667],[71.48042,51.16748],[71.48086,51.1678],[71.48157,51.16812],[71.48214,51.16834],[71.48275,51.16836],[71.48378,51.16824],[71.48419,51.16829],[71.48534,51.16888],[71.48617,51.16957],[71.48638,51.1698],[71.48791,51.17108],[71.48956,51.17203],[71.49025,51.17222],[71.49074,51.17243],[71.49164,51.17266],[71.49209,51.17393],[71.49297,51.17477],[71.4946,51.17562],[71.49542,51.17583],[71.49711,51.17586],[71.49776,51.17577],[71.49808,51.17636],[71.49942,51.1778],[71.50246,51.18098],[71.5044,51.18299],[71.50486,51.18356],[71.50504,51.18354],[71.50619,51.18321],[71.50682,51.18305],[71.507,51.18301],[71.50756,51.18291],[71.50777,51.18287],[71.50804,51.18284],[71.50875,51.18276],[71.50909,51.18273],[71.50951,51.1827],[71.50975,51.18268],[71.51072,51.18269],[71.5116,51.18265],[71.51227,51.18257],[71.51451,51.18218],[71.51517,51.18201],[71.51603,51.18172],[71.51986,51.18027],[71.52083,51.1799],[71.52167,51.1795],[71.52262,51.17898],[71.52396,51.17824],[71.52484,51.17867],[71.52534,51.179],[71.52711,51.17923],[71.52838,51.17911],[71.52984,51.17956],[71.53104,51.18004],[71.53138,51.18036],[71.5334,51.18073],[71.53376,51.1812],[71.53329,51.18227],[71.53338,51.18291],[71.53391,51.18347],[71.5352,51.18381],[71.53672,51.18451],[71.53773,51.1853],[71.53844,51.18597],[71.53956,51.18738],[71.54097,51.18859],[71.54252,51.18894],[71.54447,51.18907],[71.54608,51.18966],[71.5478,51.19003],[71.54923,51.19009],[71.55009,51.1897],[71.5522,51.18981],[71.55398,51.1902],[71.55704,51.19084],[71.55788,51.19133],[71.55802,51.19206],[71.55918,51.19279],[71.56027,51.1932],[71.56106,51.19361],[71.56186,51.19461],[71.56261,51.19492],[71.56295,51.19528],[71.56357,51.19543],[71.56863,51.19673],[71.57207,51.19885],[71.57469,51.19996],[71.57582,51.20062],[71.5775,51.20127],[71.58003,51.20276],[71.58178,51.20308],[71.58295,51.20329],[71.58326,51.20267],[71.58782,51.19855],[71.60457,51.19342],[71.61418,51.19044],[71.61612,51.18983],[71.62145,51.18818],[71.62341,51.18416],[71.6238,51.18338],[71.62423,51.18251],[71.62518,51.18056],[71.62538,51.18014],[71.62686,51.17713],[71.62734,51.17616],[71.6281,51.17457],[71.63508,51.15946],[71.6361,51.15746],[71.6389,51.15206],[71.64432,51.14161],[71.6452,51.1399],[71.67304,51.14101],[71.67304,51.14009],[71.68455,51.14054],[71.68869,51.14043],[71.69181,51.13957],[71.70042,51.13613],[71.70161,51.13564],[71.70627,51.13379],[71.71093,51.13205],[71.71348,51.13152],[71.71467,51.13135],[71.7106,51.12345],[71.70511,51.11301],[71.7105,51.11188],[71.71873,51.11012],[71.73519,51.10658],[71.74099,51.10528],[71.74125,51.10419],[71.74197,51.10155],[71.74199,51.10147],[71.74023,51.10131],[71.73947,51.10077],[71.73889,51.09955],[71.73884,51.09928],[71.73874,51.0989],[71.73917,51.09798],[71.73908,51.09762],[71.73788,51.09704],[71.73658,51.09675],[71.73526,51.09671],[71.73446,51.09718],[71.73404,51.09742],[71.73323,51.09805],[71.73253,51.09858],[71.73115,51.09876],[71.73059,51.09914],[71.73008,51.09964],[71.72942,51.10027],[71.72907,51.1006],[71.72897,51.10088],[71.72895,51.10146],[71.72894,51.10218],[71.7289,51.10305],[71.72824,51.10329],[71.7274,51.10361],[71.72572,51.10367],[71.72503,51.1035],[71.72451,51.10337],[71.7227,51.10235],[71.72245,51.1013],[71.72232,51.10071],[71.72223,51.10043],[71.72109,51.09959],[71.71995,51.09903],[71.71922,51.09876],[71.71859,51.09885],[71.7176,51.09959],[71.71632,51.09956],[71.71422,51.09952],[71.71281,51.09913],[71.71117,51.09868],[71.71101,51.09861],[71.70953,51.09797],[71.70832,51.09768],[71.70734,51.09719],[71.7066,51.09682],[71.70755,51.09607],[71.7081,51.0961],[71.70873,51.09636],[71.70937,51.09623],[71.70984,51.09598],[71.70991,51.09548],[71.70921,51.09467],[71.7088,51.09409],[71.70866,51.09286],[71.70693,51.09256],[71.70496,51.09258],[71.70377,51.09263],[71.7024,51.09287],[71.70073,51.09212],[71.70039,51.09078],[71.69922,51.08947],[71.69723,51.08949],[71.69667,51.08924],[71.6961,51.08948],[71.69566,51.09014],[71.69583,51.09038],[71.69589,51.0908],[71.69527,51.09085],[71.69464,51.09101],[71.6944,51.09124],[71.69492,51.09139],[71.69572,51.09195],[71.69581,51.09253],[71.6956,51.09286],[71.6951,51.09258],[71.69478,51.09259],[71.6944,51.09281],[71.69406,51.09374],[71.69231,51.09391],[71.69156,51.09386],[71.69184,51.09324],[71.6914,51.09303],[71.69041,51.09285],[71.68891,51.09326],[71.68884,51.09313],[71.68916,51.0925],[71.68915,51.09219],[71.68836,51.0915],[71.68729,51.09151],[71.68692,51.09321],[71.68628,51.09306],[71.68536,51.09324],[71.68463,51.0927],[71.68512,51.09208],[71.68432,51.0916],[71.6831,51.0917],[71.68158,51.09122],[71.68039,51.09058],[71.67883,51.08544],[71.67439,51.08631],[71.65866,51.08942],[71.65153,51.09102],[71.6439,51.09275],[71.63535,51.09469],[71.61491,51.0995],[71.60827,51.09139],[71.60788,51.09132],[71.60654,51.09168],[71.6054,51.09213],[71.604,51.09242],[71.60178,51.0932],[71.59921,51.0941],[71.58779,51.09719],[71.55088,51.10098],[71.53872,51.10223],[71.53283,51.10284],[71.52762,51.1034],[71.52604,51.10345],[71.52519,51.10344],[71.52436,51.10337],[71.52368,51.10327],[71.52254,51.10295],[71.519,51.10176],[71.51741,51.10128],[71.51571,51.10093],[71.51427,51.10081],[71.5129,51.10085],[71.51084,51.10119],[71.50741,51.10213],[71.50296,51.10333],[71.50145,51.10357],[71.50079,51.10359],[71.50005,51.10355],[71.49913,51.10341],[71.49814,51.10315],[71.49806,51.10312],[71.495,51.10182],[71.49233,51.10065],[71.49126,51.10019],[71.48972,51.09963],[71.48706,51.10005],[71.48321,51.10061],[71.48021,51.10102],[71.47915,51.10139],[71.47699,51.10224],[71.47628,51.10251],[71.4758,51.10282],[71.47533,51.10337],[71.47458,51.10421],[71.47402,51.10467],[71.47277,51.10518],[71.47166,51.10545],[71.46007,51.10561],[71.45689,51.10607],[71.45397,51.10709],[71.45179,51.1082],[71.45112,51.10889],[71.45076,51.10968],[71.45046,51.1124],[71.45011,51.1152],[71.44594,51.11987],[71.44585,51.12],[71.44581,51.12012],[71.44583,51.12026],[71.4463,51.12159],[71.4464,51.12173],[71.44655,51.12184],[71.44679,51.12191],[71.44787,51.12221],[71.44841,51.12239],[71.45053,51.12331],[71.45116,51.12363],[71.4516,51.12392],[71.45204,51.12434],[71.45232,51.12476],[71.45255,51.12534],[71.4526,51.12578],[71.45256,51.12622],[71.45237,51.12666],[71.45204,51.12705],[71.45146,51.12749],[71.45095,51.1278],[71.44905,51.12882],[71.44877,51.12903],[71.44851,51.12929],[71.44748,51.13057],[71.44739,51.13074],[71.44736,51.13089],[71.44739,51.13116],[71.4474,51.13131],[71.44743,51.13158],[71.44742,51.13178],[71.4473,51.13207],[71.44718,51.13228],[71.44683,51.13279],[71.44606,51.13396],[71.44179,51.14049],[71.4417,51.14222],[71.4414,51.14475],[71.44101,51.1458],[71.43981,51.14698],[71.43847,51.14754]]],[[[71.78242,51.15046],[71.76614,51.14469],[71.76088,51.14572],[71.74686,51.16215],[71.74039,51.16606],[71.78511,51.16557],[71.78519,51.1573],[71.78242,51.15046]]]]}},{"type":"Feature","properties":{"id":"saryarka","name_ru":"Сарыарка","name_kk":"Сарыарқа","osm_relation":3486954,"pop_share":0.2},"geometry":{"type":"MultiPolygon","coordinates":[[[[71.23736,51.20846],[71.2373,51.20869],[71.23764,51.20886],[71.23783,51.2092],[71.23745,51.20964],[71.23799,51.20976],[71.23859,51.20968],[71.23879,51.21009],[71.239,51.21007],[71.23918,51.20987],[71.23992,51.21025],[71.23943,51.21025],[71.23938,51.2104],[71.24007,51.21049],[71.24012,51.21063],[71.23965,51.21076],[71.23966,51.2109],[71.2401,51.21088],[71.24045,51.21105],[71.24111,51.21108],[71.24116,51.21128],[71.2407,51.21133],[71.24068,51.21147],[71.24114,51.21167],[71.2412,51.21191],[71.24062,51.21204],[71.24005,51.21234],[71.24013,51.21252],[71.24076,51.2127],[71.24086,51.21333],[71.24045,51.21354],[71.24054,51.21376],[71.24146,51.21416],[71.24127,51.21461],[71.24128,51.2152],[71.24109,51.21536],[71.24442,51.21912],[71.24617,51.22111],[71.24731,51.22354],[71.24772,51.22439],[71.24469,51.22513],[71.24739,51.22837],[71.24949,51.23101],[71.25204,51.23423],[71.25282,51.23518],[71.25339,51.23592],[71.25422,51.23696],[71.25489,51.2378],[71.25568,51.2388],[71.25754,51.24181],[71.25862,51.24355],[71.25995,51.24572],[71.26032,51.24632],[71.27046,51.24311],[71.30159,51.23323],[71.30326,51.23588],[71.30352,51.23579],[71.3262,51.22845],[71.35339,51.21988],[71.35438,51.2195],[71.35528,51.21911],[71.35612,51.21867],[71.35831,51.21696],[71.35865,51.21663],[71.35967,51.21563],[71.36101,51.21401],[71.36239,51.21248],[71.36326,51.21166],[71.36447,51.2108],[71.3672,51.20946],[71.36963,51.20866],[71.3729,51.20761],[71.37579,51.20671],[71.42573,51.19077],[71.43689,51.18739],[71.4464,51.18435],[71.44488,51.18246],[71.44438,51.18195],[71.44356,51.18122],[71.4431,51.18088],[71.44241,51.18043],[71.44154,51.17994],[71.44069,51.17956],[71.43978,51.17924],[71.43861,51.17893],[71.43683,51.17863],[71.43641,51.17858],[71.42406,51.1772],[71.42407,51.17714],[71.42412,51.17696],[71.42425,51.1766],[71.4244,51.17597],[71.42446,51.17577],[71.42966,51.15727],[71.42978,51.15686],[71.43008,51.15578],[71.43022,51.15533],[71.4303,51.15516],[71.4304,51.15501],[71.43066,51.15472],[71.43093,51.15448],[71.43122,51.15428],[71.43146,51.15418],[71.42826,51.15193],[71.42813,51.15199],[71.4275,51.1525],[71.42745,51.15261],[71.42634,51.15535],[71.42552,51.15689],[71.42471,51.15845],[71.42359,51.15942],[71.42178,51.16024],[71.41933,51.16042],[71.41546,51.15886],[71.40936,51.15721],[71.40668,51.15735],[71.40224,51.1583],[71.39903,51.15968],[71.3982,51.16022],[71.39798,51.16036],[71.39766,51.16067],[71.39745,51.16089],[71.39714,51.16131],[71.39595,51.16248],[71.39526,51.16281],[71.39446,51.16291],[71.39348,51.16302],[71.39313,51.16305],[71.39209,51.16316],[71.39148,51.1632],[71.38879,51.16336],[71.38824,51.16341],[71.38764,51.16347],[71.38691,51.16352],[71.38626,51.16356],[71.38525,51.16361],[71.38415,51.16367],[71.3817,51.16389],[71.38101,51.16394],[71.37682,51.16434],[71.37652,51.16436],[71.37553,51.16445],[71.37382,51.16458],[71.36503,51.16458],[71.36454,51.16462],[71.36443,51.16463],[71.3639,51.16468],[71.36327,51.16473],[71.36267,51.16478],[71.36207,51.16483],[71.36121,51.16489],[71.36018,51.16479],[71.35921,51.16475],[71.35771,51.16469],[71.3571,51.16472],[71.35634,51.16451],[71.35608,51.16471],[71.35601,51.16477],[71.35554,51.16517],[71.35466,51.16586],[71.35323,51.16613],[71.35054,51.16735],[71.34991,51.16767],[71.34954,51.16795],[71.34918,51.16837],[71.34909,51.16867],[71.34884,51.16903],[71.34836,51.16957],[71.34808,51.16993],[71.34804,51.17029],[71.34795,51.17081],[71.34759,51.17112],[71.34663,51.17151],[71.346,51.17196],[71.34543,51.17233],[71.3444,51.17277],[71.34309,51.17315],[71.34272,51.17327],[71.34174,51.17376],[71.34109,51.17401],[71.34031,51.17421],[71.33937,51.1743],[71.33841,51.17434],[71.33748,51.1744],[71.33662,51.17419],[71.33641,51.1743],[71.33611,51.17432],[71.33586,51.17436],[71.33542,51.17428],[71.33507,51.17428],[71.33446,51.17426],[71.33425,51.17424],[71.33397,51.17413],[71.33347,51.1738],[71.33305,51.1735],[71.33274,51.17316],[71.33237,51.17301],[71.33195,51.17292],[71.33109,51.17268],[71.33097,51.17307],[71.33094,51.17354],[71.33053,51.17387],[71.32967,51.17422],[71.32901,51.17425],[71.3289,51.17426],[71.32839,51.17422],[71.32824,51.17428],[71.32778,51.17462],[71.32771,51.17467],[71.3272,51.17514],[71.32698,51.17535],[71.32675,51.17568],[71.32705,51.17601],[71.32762,51.17646],[71.32762,51.17675],[71.32745,51.17727],[71.32711,51.17753],[71.32657,51.17782],[71.32563,51.1778],[71.32498,51.17777],[71.32446,51.17772],[71.32395,51.17757],[71.3237,51.17733],[71.32367,51.17716],[71.3236,51.17697],[71.32353,51.17686],[71.32339,51.17678],[71.32323,51.17671],[71.32306,51.17669],[71.32289,51.17671],[71.32254,51.17681],[71.32201,51.1769],[71.32184,51.17698],[71.32168,51.17718],[71.32156,51.17739],[71.32148,51.17764],[71.32141,51.17776],[71.32117,51.17785],[71.32092,51.17789],[71.32075,51.1779],[71.32063,51.1779],[71.32054,51.17783],[71.32047,51.17771],[71.32043,51.17759],[71.32036,51.17746],[71.32025,51.17738],[71.32013,51.17732],[71.31996,51.17728],[71.31981,51.17729],[71.31963,51.17735],[71.31953,51.17746],[71.31947,51.17754],[71.3194,51.17764],[71.31928,51.17772],[71.31905,51.17788],[71.31874,51.17806],[71.31839,51.17821],[71.31822,51.17828],[71.31805,51.17825],[71.31785,51.17813],[71.31783,51.17806],[71.31766,51.17796],[71.31758,51.17795],[71.31742,51.17793],[71.31735,51.17798],[71.31734,51.17809],[71.31738,51.17822],[71.31735,51.17838],[71.31725,51.17846],[71.31706,51.17858],[71.31667,51.17869],[71.31615,51.17878],[71.31582,51.17883],[71.31551,51.17891],[71.31528,51.17906],[71.31526,51.17923],[71.31525,51.17935],[71.31515,51.17957],[71.31493,51.17976],[71.31474,51.17986],[71.31439,51.17987],[71.31412,51.17981],[71.31395,51.17975],[71.31372,51.17968],[71.31347,51.17963],[71.31325,51.17965],[71.31295,51.17965],[71.31279,51.17961],[71.31267,51.17957],[71.31255,51.17957],[71.31238,51.1795],[71.31208,51.17944],[71.31184,51.17942],[71.31158,51.17941],[71.31142,51.17943],[71.31131,51.17952],[71.31133,51.17964],[71.31153,51.17978],[71.31166,51.17986],[71.31171,51.17992],[71.31172,51.17995],[71.31169,51.18],[71.31165,51.18002],[71.31141,51.18001],[71.31118,51.17997],[71.3109,51.17997],[71.31079,51.18],[71.31046,51.18008],[71.31033,51.1801],[71.31027,51.18008],[71.31019,51.18003],[71.31017,51.17998],[71.31015,51.17992],[71.31009,51.17988],[71.30999,51.17987],[71.30986,51.17993],[71.30984,51.17997],[71.30984,51.18001],[71.30979,51.18005],[71.30972,51.18009],[71.30959,51.18014],[71.30951,51.18018],[71.30941,51.18027],[71.30939,51.18039],[71.30938,51.18047],[71.30937,51.18057],[71.30934,51.18062],[71.30932,51.18073],[71.3093,51.18084],[71.30926,51.18096],[71.30929,51.18106],[71.30934,51.18116],[71.3094,51.18122],[71.30948,51.1813],[71.30948,51.18138],[71.30949,51.18146],[71.30945,51.18153],[71.30937,51.18156],[71.30927,51.18161],[71.30911,51.18167],[71.30888,51.18169],[71.30876,51.18169],[71.30867,51.18166],[71.3085,51.1816],[71.30833,51.18161],[71.30821,51.18165],[71.30811,51.1817],[71.30806,51.18176],[71.308,51.18186],[71.30797,51.18198],[71.30797,51.18204],[71.30794,51.18214],[71.30787,51.18222],[71.30779,51.18226],[71.30759,51.18232],[71.30721,51.18235],[71.30703,51.18234],[71.30674,51.18228],[71.30629,51.18211],[71.30562,51.18201],[71.30521,51.182],[71.30443,51.18213],[71.30295,51.18252],[71.30273,51.18259],[71.30266,51.1827],[71.3025,51.18267],[71.30234,51.18254],[71.30216,51.18255],[71.30198,51.18262],[71.30089,51.18313],[71.30056,51.18324],[71.30022,51.18317],[71.30002,51.1832],[71.29985,51.18328],[71.29948,51.18351],[71.29866,51.18347],[71.29855,51.18369],[71.29865,51.18382],[71.29881,51.18387],[71.29916,51.18386],[71.29931,51.18392],[71.29948,51.18409],[71.29946,51.18421],[71.29895,51.18436],[71.29842,51.18431],[71.29808,51.18437],[71.29798,51.18448],[71.29794,51.18463],[71.29792,51.18472],[71.29789,51.18478],[71.29782,51.1849],[71.29756,51.18501],[71.29724,51.18512],[71.29702,51.18525],[71.29701,51.18526],[71.29686,51.18543],[71.29684,51.18551],[71.29682,51.18561],[71.2967,51.18597],[71.29643,51.18623],[71.29647,51.18631],[71.29663,51.18636],[71.29697,51.18629],[71.29732,51.18636],[71.29748,51.18641],[71.29761,51.1865],[71.29762,51.18659],[71.29759,51.18667],[71.29736,51.18675],[71.29699,51.18687],[71.2966,51.18711],[71.29648,51.18737],[71.29635,51.18756],[71.29624,51.18772],[71.29583,51.18775],[71.29561,51.18783],[71.29519,51.18776],[71.29497,51.18782],[71.29465,51.18801],[71.29435,51.18806],[71.2941,51.18808],[71.29384,51.18825],[71.29367,51.18833],[71.29347,51.18842],[71.29265,51.1889],[71.29205,51.18925],[71.29177,51.18931],[71.28999,51.18924],[71.28623,51.18907],[71.28463,51.18888],[71.27983,51.18832],[71.27688,51.18764],[71.27545,51.1879],[71.27408,51.18811],[71.27328,51.18817],[71.27322,51.18818],[71.27343,51.18841],[71.27328,51.1886],[71.27265,51.18875],[71.2725,51.18908],[71.27202,51.18908],[71.27157,51.18928],[71.27112,51.18909],[71.27068,51.1891],[71.27042,51.18885],[71.27009,51.18899],[71.26947,51.18902],[71.26964,51.18947],[71.26908,51.18965],[71.26852,51.18904],[71.26724,51.1887],[71.26709,51.18912],[71.26704,51.18956],[71.26667,51.18974],[71.26597,51.18963],[71.26535,51.1891],[71.26484,51.18894],[71.26439,51.18915],[71.26481,51.18964],[71.26452,51.18995],[71.26272,51.18983],[71.26247,51.18963],[71.26219,51.18977],[71.26207,51.19005],[71.2615,51.19026],[71.26115,51.19115],[71.26192,51.19155],[71.26175,51.19177],[71.26124,51.19192],[71.2609,51.19223],[71.26055,51.19216],[71.26051,51.19177],[71.26011,51.1916],[71.26031,51.19101],[71.25996,51.19081],[71.26021,51.19023],[71.25932,51.18998],[71.25826,51.18994],[71.25745,51.19031],[71.257,51.19016],[71.25695,51.18949],[71.2557,51.18936],[71.25508,51.18963],[71.25531,51.18994],[71.25512,51.19034],[71.25476,51.19091],[71.25406,51.19131],[71.25348,51.19119],[71.25304,51.1903],[71.25211,51.19025],[71.25141,51.19058],[71.25138,51.19078],[71.25282,51.19242],[71.25266,51.19264],[71.25189,51.1926],[71.2518,51.193],[71.25142,51.19339],[71.25073,51.1935],[71.25002,51.19321],[71.24924,51.19365],[71.24932,51.19411],[71.24883,51.19499],[71.24761,51.19556],[71.24545,51.19657],[71.24349,51.19693],[71.24234,51.19783],[71.2434,51.19835],[71.24437,51.19831],[71.24504,51.19858],[71.2447,51.19911],[71.2434,51.20007],[71.24222,51.20063],[71.24176,51.20083],[71.24114,51.20109],[71.24043,51.2014],[71.24003,51.20197],[71.2405,51.20251],[71.2402,51.20329],[71.24135,51.20281],[71.24274,51.20278],[71.24309,51.20441],[71.24283,51.20676],[71.24153,51.20757],[71.23985,51.20762],[71.23814,51.20857],[71.23736,51.20846]]]]}},{"type":"Feature","properties":{"id":"baikonur","name_ru":"Байконур","name_kk":"Байқоңыр","osm_relation":8593081,"pop_share":0.13},"geometry":{"type":"MultiPolygon","coordinates":[[[[71.30326,51.23588],[71.30389,51.23688],[71.30402,51.23708],[71.30548,51.23862],[71.30924,51.2426],[71.31145,51.24494],[71.31379,51.24735],[71.31511,51.2487],[71.31562,51.24923],[71.31684,51.25049],[71.3178,51.25147],[71.31903,51.25273],[71.31993,51.25355],[71.32134,51.25478],[71.32433,51.25742],[71.32739,51.26012],[71.32977,51.26219],[71.33136,51.26357],[71.3328,51.26482],[71.33394,51.26582],[71.33426,51.26609],[71.33491,51.26666],[71.33843,51.26789],[71.34083,51.26873],[71.34212,51.26711],[71.34594,51.26851],[71.34669,51.26733],[71.35107,51.26819],[71.35649,51.26926],[71.36046,51.27005],[71.36375,51.27069],[71.36641,51.27122],[71.3655,51.27311],[71.3644,51.27542],[71.36415,51.27592],[71.36275,51.27939],[71.36103,51.28378],[71.35905,51.28851],[71.35879,51.28919],[71.35723,51.29335],[71.35618,51.2962],[71.35574,51.29739],[71.35561,51.29772],[71.38511,51.30234],[71.38883,51.29262],[71.38956,51.29109],[71.39066,51.2888],[71.39705,51.27418],[71.40005,51.26735],[71.41377,51.27094],[71.42812,51.27467],[71.45038,51.27159],[71.46855,51.27846],[71.4759,51.28641],[71.47735,51.28663],[71.49088,51.28862],[71.49839,51.29005],[71.49823,51.28369],[71.48881,51.27643],[71.48562,51.27396],[71.48093,51.27032],[71.479,51.26885],[71.47385,51.26495],[71.47242,51.26386],[71.47167,51.26329],[71.50314,51.25531],[71.50566,51.25467],[71.52745,51.24914],[71.54582,51.24448],[71.55106,51.24315],[71.55361,51.2453],[71.55568,51.24702],[71.5583,51.24852],[71.56258,51.24875],[71.56617,51.25281],[71.56698,51.25748],[71.57647,51.26308],[71.58425,51.26948],[71.58968,51.27394],[71.594,51.2775],[71.60192,51.26852],[71.60416,51.26612],[71.60481,51.26537],[71.6054,51.26464],[71.6062,51.26368],[71.60704,51.26266],[71.60834,51.26107],[71.60915,51.26009],[71.6114,51.25733],[71.61639,51.25125],[71.61753,51.24987],[71.61863,51.24851],[71.60614,51.24063],[71.59609,51.23429],[71.58056,51.22449],[71.57405,51.22038],[71.57748,51.21382],[71.58295,51.20329],[71.58178,51.20308],[71.58003,51.20276],[71.5775,51.20127],[71.57582,51.20062],[71.57469,51.19996],[71.57207,51.19885],[71.56863,51.19673],[71.56357,51.19543],[71.56295,51.19528],[71.56261,51.19492],[71.56186,51.19461],[71.56106,51.19361],[71.56027,51.1932],[71.55918,51.19279],[71.55802,51.19206],[71.55788,51.19133],[71.55704,51.19084],[71.55398,51.1902],[71.5522,51.18981],[71.55009,51.1897],[71.54923,51.19009],[71.5478,51.19003],[71.54608,51.18966],[71.54447,51.18907],[71.54252,51.18894],[71.54097,51.18859],[71.53956,51.18738],[71.53844,51.18597],[71.53773,51.1853],[71.53672,51.18451],[71.5352,51.18381],[71.53391,51.18347],[71.53338,51.18291],[71.53329,51.18227],[71.53376,51.1812],[71.5334,51.18073],[71.53138,51.18036],[71.53104,51.18004],[71.52984,51.17956],[71.52838,51.17911],[71.52711,51.17923],[71.52534,51.179],[71.52484,51.17867],[71.52396,51.17824],[71.52262,51.17898],[71.52167,51.1795],[71.52083,51.1799],[71.51986,51.18027],[71.51603,51.18172],[71.51517,51.18201],[71.51451,51.18218],[71.51227,51.18257],[71.5116,51.18265],[71.51072,51.18269],[71.50975,51.18268],[71.50951,51.1827],[71.50909,51.18273],[71.50875,51.18276],[71.50804,51.18284],[71.50777,51.18287],[71.50756,51.18291],[71.507,51.18301],[71.50682,51.18305],[71.50619,51.18321],[71.50504,51.18354],[71.50486,51.18356],[71.5044,51.18299],[71.50246,51.18098],[71.49942,51.1778],[71.49808,51.17636],[71.49776,51.17577],[71.49711,51.17586],[71.49542,51.17583],[71.4946,51.17562],[71.49297,51.17477],[71.49209,51.17393],[71.49164,51.17266],[71.49074,51.17243],[71.49025,51.17222],[71.48956,51.17203],[71.48791,51.17108],[71.48638,51.1698],[71.48617,51.16957],[71.48534,51.16888],[71.48419,51.16829],[71.48378,51.16824],[71.48275,51.16836],[71.48214,51.16834],[71.48157,51.16812],[71.48086,51.1678],[71.48042,51.16748],[71.47965,51.1667],[71.47898,51.1658],[71.47819,51.1648],[71.47803,51.16462],[71.47784,51.16431],[71.47775,51.16421],[71.47764,51.16414],[71.47745,51.1641],[71.4767,51.16398],[71.47587,51.1639],[71.47503,51.16386],[71.47452,51.16379],[71.47402,51.16366],[71.47312,51.16307],[71.47287,51.16271],[71.47272,51.16244],[71.47247,51.16208],[71.47192,51.1616],[71.47036,51.16104],[71.47019,51.16093],[71.47,51.16079],[71.46991,51.16068],[71.46988,51.16064],[71.46986,51.16063],[71.46965,51.16037],[71.46892,51.15995],[71.46711,51.15902],[71.4654,51.15816],[71.45958,51.15551],[71.45499,51.1546],[71.45468,51.15424],[71.45365,51.15393],[71.45362,51.15366],[71.45314,51.15332],[71.45239,51.15311],[71.45162,51.15305],[71.4504,51.15277],[71.44763,51.15194],[71.44569,51.15084],[71.44427,51.15004],[71.44314,51.14942],[71.44076,51.14846],[71.43847,51.14754],[71.43801,51.14774],[71.43784,51.14836],[71.43586,51.14959],[71.43316,51.15005],[71.43106,51.15027],[71.42934,51.15102],[71.42849,51.1517],[71.42826,51.15193],[71.43146,51.15418],[71.43122,51.15428],[71.43093,51.15448],[71.43066,51.15472],[71.4304,51.15501],[71.4303,51.15516],[71.43022,51.15533],[71.43008,51.15578],[71.42978,51.15686],[71.42966,51.15727],[71.42446,51.17577],[71.4244,51.17597],[71.42425,51.1766],[71.42412,51.17696],[71.42407,51.17714],[71.42406,51.1772],[71.43641,51.17858],[71.43683,51.17863],[71.43861,51.17893],[71.43978,51.17924],[71.44069,51.17956],[71.44154,51.17994],[71.44241,51.18043],[71.4431,51.18088],[71.44356,51.18122],[71.44438,51.18195],[71.44488,51.18246],[71.4464,51.18435],[71.43689,51.18739],[71.42573,51.19077],[71.37579,51.20671],[71.3729,51.20761],[71.36963,51.20866],[71.3672,51.20946],[71.36447,51.2108],[71.36326,51.21166],[71.36239,51.21248],[71.36101,51.21401],[71.35967,51.21563],[71.35865,51.21663],[71.35831,51.21696],[71.35612,51.21867],[71.35528,51.21911],[71.35438,51.2195],[71.35339,51.21988],[71.3262,51.22845],[71.30352,51.23579],[71.30326,51.23588]]],[[[71.3202,51.29539],[71.33622,51.2717],[71.30925,51.26385],[71.29809,51.27276],[71.30788,51.2777],[71.30612,51.29096],[71.3202,51.29539]]],[[[71.65796,51.31719],[71.65131,51.32152],[71.64453,51.32837],[71.64153,51.33167],[71.66781,51.33988],[71.68387,51.35094],[71.6951,51.35111],[71.69271,51.34888],[71.69774,51.34659],[71.70113,51.34977],[71.70633,51.3476],[71.70391,51.34283],[71.69992,51.33888],[71.69905,51.33787],[71.69737,51.33534],[71.69418,51.33353],[71.69383,51.33371],[71.6866,51.32889],[71.68424,51.32565],[71.67876,51.32174],[71.67249,51.31745],[71.6716,51.31656],[71.67332,51.31566],[71.67075,51.31398],[71.67042,51.31377],[71.67423,51.31114],[71.67187,51.30943],[71.67036,51.31038],[71.66774,51.31219],[71.66655,51.31302],[71.65803,51.31716],[71.65796,51.31719]]]]}},{"type":"Feature","properties":{"id":"nura","name_ru":"Нура","name_kk":"Нұра","osm_relation":20593940,"pop_share":0.16},"geometry":{"type":"MultiPolygon","coordinates":[[[[71.24545,51.06831],[71.24875,51.06853],[71.25019,51.0682],[71.25175,51.06748],[71.25322,51.06589],[71.25399,51.06558],[71.25552,51.06367],[71.2558,51.06183],[71.25565,51.06144],[71.25517,51.06012],[71.25453,51.0584],[71.25432,51.05749],[71.25399,51.05602],[71.25458,51.05463],[71.25485,51.05396],[71.25487,51.05392],[71.25482,51.05219],[71.2548,51.05154],[71.25479,51.05108],[71.25475,51.04978],[71.25499,51.04895],[71.2562,51.04826],[71.25776,51.04736],[71.25832,51.04694],[71.25932,51.0462],[71.26018,51.04558],[71.26102,51.04455],[71.26209,51.04322],[71.26269,51.04248],[71.2633,51.04171],[71.26596,51.04061],[71.26674,51.03987],[71.26788,51.03879],[71.26833,51.0367],[71.26858,51.03608],[71.26929,51.0343],[71.27015,51.03384],[71.27158,51.03306],[71.27244,51.03259],[71.27355,51.03178],[71.27493,51.03077],[71.27558,51.03029],[71.27687,51.0288],[71.27757,51.028],[71.27825,51.02739],[71.27936,51.0264],[71.28067,51.02521],[71.28203,51.02471],[71.28409,51.02395],[71.28596,51.02229],[71.28774,51.02194],[71.28896,51.0217],[71.29065,51.02188],[71.29324,51.02209],[71.29476,51.02222],[71.29588,51.02231],[71.29824,51.0225],[71.29972,51.02262],[71.30176,51.02279],[71.30288,51.02288],[71.30376,51.02279],[71.30446,51.02272],[71.30553,51.02261],[71.30676,51.02248],[71.30773,51.02237],[71.30901,51.02269],[71.31015,51.02297],[71.31228,51.0235],[71.31397,51.02362],[71.3184,51.02393],[71.32121,51.02346],[71.32337,51.02308],[71.32838,51.02221],[71.33169,51.02164],[71.33473,51.01974],[71.33547,51.01927],[71.33818,51.0189],[71.33997,51.01865],[71.34186,51.0184],[71.34526,51.01793],[71.34743,51.01763],[71.34902,51.01741],[71.35416,51.01671],[71.35738,51.01627],[71.36052,51.01583],[71.36466,51.01526],[71.36619,51.01505],[71.36806,51.0148],[71.38002,51.01314],[71.38105,51.01316],[71.3809,51.01418],[71.38076,51.01629],[71.38065,51.01737],[71.38064,51.01817],[71.38059,51.01878],[71.38051,51.02007],[71.3805,51.02112],[71.38061,51.02255],[71.38123,51.02726],[71.38148,51.02919],[71.38166,51.03045],[71.38182,51.03127],[71.38204,51.03214],[71.38229,51.033],[71.38335,51.03598],[71.38407,51.03796],[71.38551,51.04199],[71.39057,51.05604],[71.39532,51.06943],[71.39885,51.07885],[71.40487,51.09572],[71.40743,51.10302],[71.41008,51.11018],[71.41049,51.1114],[71.41078,51.11272],[71.41217,51.12067],[71.41423,51.13232],[71.4146,51.13398],[71.41515,51.13529],[71.41566,51.13627],[71.42053,51.14393],[71.42201,51.14632],[71.42272,51.14745],[71.42313,51.14806],[71.42406,51.14893],[71.42826,51.15193],[71.42813,51.15199],[71.4275,51.1525],[71.42745,51.15261],[71.42634,51.15535],[71.42552,51.15689],[71.42471,51.15845],[71.42359,51.15942],[71.42178,51.16024],[71.41933,51.16042],[71.41546,51.15886],[71.40936,51.15721],[71.40668,51.15735],[71.40224,51.1583],[71.39903,51.15968],[71.3982,51.16022],[71.39798,51.16036],[71.39766,51.16067],[71.39745,51.16089],[71.39714,51.16131],[71.39595,51.16248],[71.39526,51.16281],[71.39446,51.16291],[71.39348,51.16302],[71.39313,51.16305],[71.39209,51.16316],[71.39148,51.1632],[71.38879,51.16336],[71.38824,51.16341],[71.38764,51.16347],[71.38691,51.16352],[71.38626,51.16356],[71.38525,51.16361],[71.38415,51.16367],[71.3817,51.16389],[71.38101,51.16394],[71.37682,51.16434],[71.37652,51.16436],[71.37553,51.16445],[71.37382,51.16458],[71.36503,51.16458],[71.36454,51.16462],[71.36443,51.16463],[71.3639,51.16468],[71.36327,51.16473],[71.36267,51.16478],[71.36207,51.16483],[71.36121,51.16489],[71.36018,51.16479],[71.35921,51.16475],[71.35771,51.16469],[71.3571,51.16472],[71.35634,51.16451],[71.35608,51.16471],[71.35601,51.16477],[71.35554,51.16517],[71.35466,51.16586],[71.35323,51.16613],[71.35054,51.16735],[71.34991,51.16767],[71.34954,51.16795],[71.34918,51.16837],[71.34909,51.16867],[71.34884,51.16903],[71.34836,51.16957],[71.34808,51.16993],[71.34804,51.17029],[71.34795,51.17081],[71.34759,51.17112],[71.34663,51.17151],[71.346,51.17196],[71.34543,51.17233],[71.3444,51.17277],[71.34309,51.17315],[71.34272,51.17327],[71.34174,51.17376],[71.34109,51.17401],[71.34031,51.17421],[71.33937,51.1743],[71.33841,51.17434],[71.33748,51.1744],[71.33662,51.17419],[71.33641,51.1743],[71.33611,51.17432],[71.33586,51.17436],[71.33542,51.17428],[71.33507,51.17428],[71.33446,51.17426],[71.33425,51.17424],[71.33397,51.17413],[71.33347,51.1738],[71.33305,51.1735],[71.33274,51.17316],[71.33237,51.17301],[71.33195,51.17292],[71.33109,51.17268],[71.33097,51.17307],[71.33094,51.17354],[71.33053,51.17387],[71.32967,51.17422],[71.32901,51.17425],[71.3289,51.17426],[71.32839,51.17422],[71.32824,51.17428],[71.32778,51.17462],[71.32771,51.17467],[71.3272,51.17514],[71.32698,51.17535],[71.32675,51.17568],[71.32705,51.17601],[71.32762,51.17646],[71.32762,51.17675],[71.32745,51.17727],[71.32711,51.17753],[71.32657,51.17782],[71.32563,51.1778],[71.32498,51.17777],[71.32446,51.17772],[71.32395,51.17757],[71.3237,51.17733],[71.32367,51.17716],[71.3236,51.17697],[71.32353,51.17686],[71.32339,51.17678],[71.32323,51.17671],[71.32306,51.17669],[71.32289,51.17671],[71.32254,51.17681],[71.32201,51.1769],[71.32184,51.17698],[71.32168,51.17718],[71.32156,51.17739],[71.32148,51.17764],[71.32141,51.17776],[71.32117,51.17785],[71.32092,51.17789],[71.32075,51.1779],[71.32063,51.1779],[71.32054,51.17783],[71.32047,51.17771],[71.32043,51.17759],[71.32036,51.17746],[71.32025,51.17738],[71.32013,51.17732],[71.31996,51.17728],[71.31981,51.17729],[71.31963,51.17735],[71.31953,51.17746],[71.31947,51.17754],[71.3194,51.17764],[71.31928,51.17772],[71.31905,51.17788],[71.31874,51.17806],[71.31839,51.17821],[71.31822,51.17828],[71.31805,51.17825],[71.31785,51.17813],[71.31783,51.17806],[71.31766,51.17796],[71.31758,51.17795],[71.31742,51.17793],[71.31735,51.17798],[71.31734,51.17809],[71.31738,51.17822],[71.31735,51.17838],[71.31725,51.17846],[71.31706,51.17858],[71.31667,51.17869],[71.31615,51.17878],[71.31582,51.17883],[71.31551,51.17891],[71.31528,51.17906],[71.31526,51.17923],[71.31525,51.17935],[71.31515,51.17957],[71.31493,51.17976],[71.31474,51.17986],[71.31439,51.17987],[71.31412,51.17981],[71.31395,51.17975],[71.31372,51.17968],[71.31347,51.17963],[71.31325,51.17965],[71.31295,51.17965],[71.31279,51.17961],[71.31267,51.17957],[71.31255,51.17957],[71.31238,51.1795],[71.31208,51.17944],[71.31184,51.17942],[71.31158,51.17941],[71.31142,51.17943],[71.31131,51.17952],[71.31133,51.17964],[71.31153,51.17978],[71.31166,51.17986],[71.31171,51.17992],[71.31172,51.17995],[71.31169,51.18],[71.31165,51.18002],[71.31141,51.18001],[71.31118,51.17997],[71.3109,51.17997],[71.31079,51.18],[71.31046,51.18008],[71.31033,51.1801],[71.31027,51.18008],[71.31019,51.18003],[71.31017,51.17998],[71.31015,51.17992],[71.31009,51.17988],[71.30999,51.17987],[71.30986,51.17993],[71.30984,51.17997],[71.30984,51.18001],[71.30979,51.18005],[71.30972,51.18009],[71.30959,51.18014],[71.30951,51.18018],[71.30941,51.18027],[71.30939,51.18039],[71.30938,51.18047],[71.30937,51.18057],[71.30934,51.18062],[71.30932,51.18073],[71.3093,51.18084],[71.30926,51.18096],[71.30929,51.18106],[71.30934,51.18116],[71.3094,51.18122],[71.30948,51.1813],[71.30948,51.18138],[71.30949,51.18146],[71.30945,51.18153],[71.30937,51.18156],[71.30927,51.18161],[71.30911,51.18167],[71.30888,51.18169],[71.30876,51.18169],[71.30867,51.18166],[71.3085,51.1816],[71.30833,51.18161],[71.30821,51.18165],[71.30811,51.1817],[71.30806,51.18176],[71.308,51.18186],[71.30797,51.18198],[71.30797,51.18204],[71.30794,51.18214],[71.30787,51.18222],[71.30779,51.18226],[71.30759,51.18232],[71.30721,51.18235],[71.30703,51.18234],[71.30674,51.18228],[71.30629,51.18211],[71.30562,51.18201],[71.30521,51.182],[71.30443,51.18213],[71.30295,51.18252],[71.30273,51.18259],[71.30266,51.1827],[71.3025,51.18267],[71.30234,51.18254],[71.30216,51.18255],[71.30198,51.18262],[71.30089,51.18313],[71.30056,51.18324],[71.30022,51.18317],[71.30002,51.1832],[71.29985,51.18328],[71.29948,51.18351],[71.29866,51.18347],[71.29855,51.18369],[71.29865,51.18382],[71.29881,51.18387],[71.29916,51.18386],[71.29931,51.18392],[71.29948,51.18409],[71.29946,51.18421],[71.29895,51.18436],[71.29842,51.18431],[71.29808,51.18437],[71.29798,51.18448],[71.29794,51.18463],[71.29792,51.18472],[71.29789,51.18478],[71.29782,51.1849],[71.29756,51.18501],[71.29724,51.18512],[71.29702,51.18525],[71.29701,51.18526],[71.29686,51.18543],[71.29684,51.18551],[71.29682,51.18561],[71.2967,51.18597],[71.29643,51.18623],[71.29647,51.18631],[71.29663,51.18636],[71.29697,51.18629],[71.29732,51.18636],[71.29748,51.18641],[71.29761,51.1865],[71.29762,51.18659],[71.29759,51.18667],[71.29736,51.18675],[71.29699,51.18687],[71.2966,51.18711],[71.29648,51.18737],[71.29635,51.18756],[71.29624,51.18772],[71.29583,51.18775],[71.29561,51.18783],[71.29519,51.18776],[71.29497,51.18782],[71.29465,51.18801],[71.29435,51.18806],[71.2941,51.18808],[71.29384,51.18825],[71.29367,51.18833],[71.29347,51.18842],[71.29265,51.1889],[71.29205,51.18925],[71.29177,51.18931],[71.28999,51.18924],[71.28623,51.18907],[71.28463,51.18888],[71.27983,51.18832],[71.27688,51.18764],[71.27545,51.1879],[71.27408,51.18811],[71.27328,51.18817],[71.27322,51.18818],[71.27317,51.18819],[71.27213,51.18805],[71.27215,51.18758],[71.27198,51.18707],[71.27074,51.1867],[71.26987,51.18614],[71.27027,51.18594],[71.27017,51.18523],[71.27015,51.18507],[71.27042,51.18462],[71.27091,51.18449],[71.27115,51.18419],[71.27108,51.18408],[71.27105,51.18419],[71.27073,51.18379],[71.27086,51.18336],[71.27111,51.18335],[71.27157,51.18378],[71.27195,51.18394],[71.27273,51.18372],[71.27282,51.18343],[71.27237,51.18329],[71.27178,51.18279],[71.27217,51.18242],[71.27331,51.18137],[71.27425,51.18145],[71.27513,51.18215],[71.27572,51.1821],[71.27579,51.18154],[71.27608,51.18156],[71.27628,51.18147],[71.27616,51.18126],[71.2763,51.18112],[71.27631,51.18086],[71.27598,51.18033],[71.27599,51.18032],[71.27634,51.18012],[71.27672,51.18028],[71.27731,51.18032],[71.27759,51.18081],[71.27836,51.18042],[71.27878,51.18037],[71.27909,51.18048],[71.27951,51.18083],[71.27954,51.18086],[71.27983,51.18114],[71.28058,51.18095],[71.2809,51.18067],[71.28109,51.17984],[71.2815,51.1796],[71.28179,51.17963],[71.28192,51.17939],[71.27802,51.1782],[71.26539,51.17432],[71.25963,51.17508],[71.25298,51.17596],[71.25366,51.16888],[71.25419,51.16327],[71.25423,51.16288],[71.25443,51.15823],[71.24277,51.15764],[71.24259,51.1524],[71.23858,51.15232],[71.2385,51.1497],[71.23616,51.14965],[71.23699,51.13838],[71.23701,51.13742],[71.23674,51.13456],[71.23672,51.13287],[71.23748,51.13252],[71.23708,51.132],[71.23547,51.13006],[71.23413,51.12852],[71.23251,51.12656],[71.23095,51.12465],[71.22971,51.12292],[71.22903,51.12149],[71.22845,51.11922],[71.22852,51.11688],[71.22894,51.11511],[71.22185,51.11245],[71.21797,51.11079],[71.22016,51.10785],[71.22502,51.10133],[71.22588,51.10018],[71.22744,51.09767],[71.23017,51.09329],[71.23615,51.08352],[71.23865,51.07947],[71.2419,51.07411],[71.24201,51.07394],[71.24349,51.07152],[71.24545,51.06831]]]]}}]}